STARLINK-2188           
1 48563U 21041L   26068.53595363 -.00000578  00000+0 -73855-5 0  9999
2 48563  53.1608 127.4161 0001646  91.3833 268.7357 15.30194145265258
NUSAT-49 (KLARA DAN VO*)
1 60500U 24149AJ  26068.79810190  .00012912  00000+0  43568-3 0  9991
2 60500  97.3807 150.7380 0001132 286.7761  73.3356 15.30828857 86935
